GLOBALSTAR M067 [+]     
1 32263U 07048A   24108.56249813 -.00000096  00000+0  83193-5 0  9992
2 32263  51.9720 201.3152 0001382 147.2679 317.5325 12.40641887756652
GLOBALSTAR M070 [+]     
1 32264U 07048B   24108.91961852 -.00000051  00000+0  29437-3 0  9996
2 32264  51.9768 344.0118 0000475  93.1326 279.6381 12.62290079760946
GLOBALSTAR M066 [+]     
1 32265U 07048C   24108.58255469 -.00000047  00000+0  31488-3 0  9994
2 32265  51.9667 207.0266 0000865 127.5995 334.7394 12.62260042763121
GLOBALSTAR M068 [-]     
1 32266U 07048D   24108.90152766 -.00000026  00000+0  43353-3 0  9998
2 32266  51.9865 158.6287 0000656 268.8622 262.7678 12.62785183763820
GLOBALSTAR M079 [+]     
1 37188U 10054A   24109.14001566 -.00000072  00000+0  17892-3 0  9995
2 37188  52.0062 353.6983 0000987  83.4201  81.5131 12.62268474623454
GLOBALSTAR M074 [+]     
1 37189U 10054B   24109.08355148 -.00000071  00000+0  18238-3 0  9991
2 37189  52.0037 353.2596 0000683  81.3160  66.2751 12.62267078623443
GLOBALSTAR M076 [+]     
1 37190U 10054C   24109.11343319 -.00000079  00000+0  13687-3 0  9995
2 37190  52.0051 353.2996 0001008 111.6684  52.5894 12.62276613623457
GLOBALSTAR M077 [+]     
1 37191U 10054D   24108.76544951 -.00000065  00000+0  21911-3 0  9995
2 37191  52.0075 311.0947 0000760 101.5153 339.6997 12.62271723623422
